NORAD_CAT_ID,OBJECT_NAME,OBJECT_TYPE,EPOCH,MEAN_MOTION,ECCENTRICITY,INCLINATION,RA_OF_ASC_NODE,ARG_OF_PERICENTER,MEAN_ANOMALY,BSTAR,MEAN_MOTION_DOT,MEAN_MOTION_DDOT,TLE_LINE0,TLE_LINE1,TLE_LINE2,SEMIMAJOR_AXIS,PERIOD,APOGEE,PERIGEE,DECAYED
55416.0,STARLINK-5624,PAYLOAD,2023-03-12 16:43:52,15.69935068,0.0003055,70.0002,337.2131,244.025,116.0631,3.4541e-05,3.944e-05,0.0,0 STARLINK-5624,1 55416U 23014AB  23071.69713599  .00003944  00000-0  34541-4 0  9994,2 55416  70.0002 337.2131 0003055 244.0250 116.0631 15.69935068  6480,6737.22,91.724,361.143,357.027,0.0
55416.0,STARLINK-5624,PAYLOAD,2023-03-12 18:15:38,15.69911821,0.000283,69.9989,337.0326,253.1913,106.8972,-4.0098e-05,-5.028e-05,0.0,0 STARLINK-5624,1 55416U 23014AB  23071.76085880 -.00005028  00000-0 -40098-4 0  9998,2 55416  69.9989 337.0326 0002830 253.1913 106.8972 15.69911821  6499,6737.286,91.725,361.058,357.245,0.0
55416.0,STARLINK-5624,PAYLOAD,2023-03-13 01:54:23,15.69940466,0.0003142,69.9986,336.1369,254.6655,105.4193,5.7829e-05,6.751e-05,0.0,0 STARLINK-5624,1 55416U 23014AB  23072.07943519  .00006751  00000-0  57829-4 0  9997,2 55416  69.9986 336.1369 0003142 254.6655 105.4193 15.69940466  6542,6737.204,91.723,361.186,356.952,0.0
55416.0,STARLINK-5624,PAYLOAD,2023-03-14 02:22:25,15.69913698,0.0002767,69.9989,333.271,271.7772,88.3106,-3.1215e-05,-3.962e-05,0.0,0 STARLINK-5624,1 55416U 23014AB  23073.09890922 -.00003962  00000-0 -31215-4 0  9993,2 55416  69.9989 333.2710 0002767 271.7772  88.3106 15.69913698  6703,6737.281,91.725,361.01,357.282,0.0
55416.0,STARLINK-5624,PAYLOAD,2023-03-14 16:08:11,15.69929651,0.0002694,69.9992,331.6574,268.9303,91.1584,4.011e-05,4.614e-05,0.0,0 STARLINK-5624,1 55416U 23014AB  23073.67235592  .00004614  00000-0  40110-4 0  9990,2 55416  69.9992 331.6574 0002694 268.9303  91.1584 15.69929651  6791,6737.235,91.724,360.915,357.285,0.0
55416.0,STARLINK-5624,PAYLOAD,2023-03-15 02:50:27,15.69926995,0.0003006,69.9985,330.4015,269.51,90.5751,1.9633e-05,2.149e-05,0.0,0 STARLINK-5624,1 55416U 23014AB  23074.11837403  .00002149  00000-0  19633-4 0  9996,2 55416  69.9985 330.4015 0003006 269.5100  90.5751 15.69926995  6865,6737.243,91.724,361.133,357.083,0.0
55416.0,STARLINK-5624,PAYLOAD,2023-03-15 16:36:13,15.69921257,0.0003399,69.9997,328.7898,273.3045,86.7762,-1.7099e-05,-2.268e-05,0.0,0 STARLINK-5624,1 55416U 23014AB  23074.69182751 -.00002268  00000-0 -17099-4 0  9996,2 55416  69.9997 328.7898 0003399 273.3045  86.7762 15.69921257  6958,6737.259,91.724,361.414,356.834,0.0
55416.0,STARLINK-5624,PAYLOAD,2023-03-15 22:43:13,15.69939079,0.0003605,69.9982,328.0727,266.1199,93.9584,5.2444e-05,6.102e-05,0.0,0 STARLINK-5624,1 55416U 23014AB  23074.94668929  .00006102  00000-0  52444-4 0  9992,2 55416  69.9982 328.0727 0003605 266.1199  93.9584 15.69939079  7938,6737.208,91.723,361.502,356.645,0.0
55416.0,STARLINK-5624,PAYLOAD,2023-03-16 01:46:44,15.69934782,0.0003454,69.9994,327.7149,280.6841,79.3966,4.3743e-05,5.052e-05,0.0,0 STARLINK-5624,1 55416U 23014AB  23075.07412342  .00005052  00000-0  43743-4 0  9998,2 55416  69.9994 327.7149 0003454 280.6841  79.3966 15.69934782  7019,6737.221,91.724,361.413,356.759,0.0
55416.0,STARLINK-5624,PAYLOAD,2023-03-16 20:07:46,15.69919875,0.0003966,69.998,325.5644,265.7099,94.3643,1.0193e-05,1.013e-05,0.0,0 STARLINK-5624,1 55416U 23014AB  23075.83872998  .00001013  00000-0  10193-4 0  9995,2 55416  69.9980 325.5644 0003966 265.7099  94.3643 15.69919875  7135,6737.263,91.724,361.8,356.456,0.0
55416.0,STARLINK-5624,PAYLOAD,2023-03-17 09:53:32,15.69921131,0.0003406,69.9996,323.9517,264.2604,95.8203,1.0023e-05,9.92e-06,0.0,0 STARLINK-5624,1 55416U 23014AB  23076.41218047  .00000992  00000-0  10023-4 0  9996,2 55416  69.9996 323.9517 0003406 264.2604  95.8203 15.69921131  8168,6737.26,91.724,361.419,356.83,0.0
55416.0,STARLINK-5624,PAYLOAD,2023-03-17 17:32:17,15.6993101,0.0003555,69.9976,323.0579,260.4828,99.5966,3.2056e-05,3.644e-05,0.0,0 STARLINK-5624,1 55416U 23014AB  23076.73076180  .00003644  00000-0  32056-4 0  9998,2 55416  69.9976 323.0579 0003555 260.4828  99.5966 15.69931010  8216,6737.231,91.724,361.491,356.701,0.0
55416.0,STARLINK-5624,PAYLOAD,2023-03-18 02:42:48,15.69940289,0.0003463,69.9982,321.9828,259.6959,100.3847,8.3521e-05,9.848e-05,0.0,0 STARLINK-5624,1 55416U 23014AB  23077.11305915  .00009848  00000-0  83521-4 0  9997,2 55416  69.9982 321.9828 0003463 259.6959 100.3847 15.69940289  7339,6737.205,91.723,361.403,356.737,0.0
55416.0,STARLINK-5624,PAYLOAD,2023-03-18 04:14:33,15.69931895,0.0003428,69.9987,321.7997,257.3434,102.7379,7.5832e-05,8.918e-05,0.0,0 STARLINK-5624,1 55416U 23014AB  23077.17677815  .00008918  00000-0  75832-4 0  9997,2 55416  69.9987 321.7997 0003428 257.3434 102.7379 15.69931895  7343,6737.229,91.724,361.403,356.784,0.0
55416.0,STARLINK-5624,PAYLOAD,2023-03-18 19:32:04,15.6993501,0.0003159,69.9993,320.0114,262.7859,97.2977,5.5664e-05,6.488e-05,0.0,0 STARLINK-5624,1 55416U 23014AB  23077.81394501  .00006488  00000-0  55664-4 0  9997,2 55416  69.9993 320.0114 0003159 262.7859  97.2977 15.69935010  7441,6737.22,91.724,361.213,356.957,0.0
55416.0,STARLINK-5624,PAYLOAD,2023-03-18 22:35:34,15.69950412,0.0003153,69.9991,319.6529,258.5192,101.565,0.00014225,0.00016944,0.0,0 STARLINK-5624,1 55416U 23014AB  23077.94137454  .00016944  00000-0  14225-3 0  9998,2 55416  69.9991 319.6529 0003153 258.5192 101.5650 15.69950412  8407,6737.176,91.723,361.165,356.917,0.0
55416.0,STARLINK-5624,PAYLOAD,2023-03-19 03:10:50,15.69908236,0.000227,69.9982,319.114,265.2858,94.8078,2.3401e-05,2.6e-05,0.0,0 STARLINK-5624,1 55416U 23014AB  23078.13253358  .00002600  00000-0  23401-4 0  9993,2 55416  69.9982 319.1140 0002270 265.2858  94.8078 15.69908236  7497,6737.297,91.725,360.691,357.632,0.0
55416.0,STARLINK-5624,PAYLOAD,2023-03-19 18:28:21,15.69942585,0.0003584,69.9979,317.3238,264.2182,95.8605,0.00023643,0.00028335,0.0,0 STARLINK-5624,1 55416U 23014AB  23078.76969608  .00028335  00000-0  23643-3 0  9994,2 55416  69.9979 317.3238 0003584 264.2182  95.8605 15.69942585  7592,6737.198,91.723,361.478,356.649,0.0
55416.0,STARLINK-5624,PAYLOAD,2023-03-20 03:38:52,15.69934363,0.0003257,69.9987,316.2481,268.3392,91.743,0.00013241,0.00015745,0.0,0 STARLINK-5624,1 55416U 23014AB  23079.15199539  .00015745  00000-0  13241-3 0  9990,2 55416  69.9987 316.2481 0003257 268.3392  91.7430 15.69934363  7657,6737.222,91.724,361.281,356.892,0.0
55416.0,STARLINK-5624,PAYLOAD,2023-03-20 18:56:23,15.69929421,0.0003641,69.9989,314.4578,264.1832,95.8948,0.00019939,0.00023837,0.0,0 STARLINK-5624,1 55416U 23014AB  23079.78916582  .00023837  00000-0  19939-3 0  9995,2 55416  69.9989 314.4578 0003641 264.1832  95.8948 15.69929421  8699,6737.236,91.724,361.554,356.648,0.0
55416.0,STARLINK-5624,PAYLOAD,2023-03-21 01:03:24,15.69952877,0.0003649,69.9983,313.7406,266.1188,93.9591,0.00033424,0.0004022,0.0,0 STARLINK-5624,1 55416U 23014AB  23080.04402917  .00040220  00000-0  33424-3 0  9998,2 55416  69.9983 313.7406 0003649 266.1188  93.9591 15.69952877  7793,6737.169,91.722,361.492,356.575,0.0
55416.0,STARLINK-5624,PAYLOAD,2023-03-22 03:03:11,15.69930453,0.000382,69.9978,310.6948,271.416,88.6598,7.0746e-05,8.305e-05,0.0,0 STARLINK-5624,1 55416U 23014AB  23081.12721224  .00008305  00000-0  70746-4 0  9990,2 55416  69.9978 310.6948 0003820 271.4160  88.6598 15.69930453  7967,6737.233,91.724,361.672,356.524,0.0
55416.0,STARLINK-5624,PAYLOAD,2023-03-22 16:48:57,15.6993321,0.0003883,69.9975,309.0814,271.1136,88.9615,0.00011786,0.00013989,0.0,0 STARLINK-5624,1 55416U 23014AB  23081.70066405  .00013989  00000-0  11786-3 0  9999,2 55416  69.9975 309.0814 0003883 271.1136  88.9615 15.69933210  8055,6737.225,91.724,361.706,356.474,0.0
55416.0,STARLINK-5624,PAYLOAD,2023-03-23 00:27:42,15.69934917,0.0003817,69.9974,308.186,270.433,89.6428,4.0302e-05,4.638e-05,0.0,0 STARLINK-5624,1 55416U 23014AB  23082.01924454  .00004638  00000-0  40302-4 0  9999,2 55416  69.9974 308.1860 0003817 270.4330  89.6428 15.69934917  8101,6737.22,91.724,361.657,356.514,0.0
55416.0,STARLINK-5624,PAYLOAD,2023-03-23 18:48:43,15.69935017,0.0004229,69.999,306.0337,261.1825,98.8892,3.9857e-05,4.585e-05,0.0,0 STARLINK-5624,1 55416U 23014AB  23082.78384130  .00004585  00000-0  39857-4 0  9998,2 55416  69.9990 306.0337 0004229 261.1825  98.8892 15.69935017  8221,6737.22,91.724,361.934,356.236,0.0
55416.0,STARLINK-5624,PAYLOAD,2023-03-24 02:27:29,15.69959279,0.0003864,69.9979,305.1365,273.0284,87.047,0.00011264,0.00013374,0.0,0 STARLINK-5624,1 55416U 23014AB  23083.10241987  .00013374  00000-0  11264-3 0  9994,2 55416  69.9979 305.1365 0003864 273.0284  87.0470 15.69959279  8277,6737.151,91.722,361.619,356.412,0.0
55416.0,STARLINK-5624,PAYLOAD,2023-03-24 16:13:15,15.69923371,0.0003707,69.9986,303.5254,264.7402,95.3371,1.2592e-06,-6.2e-07,0.0,0 STARLINK-5624,1 55416U 23014AB  23083.67587872 -.00000062  00000-0  12592-5 0  9990,2 55416  69.9986 303.5254 0003707 264.7402  95.3371 15.69923371  8365,6737.253,91.724,361.616,356.621,0.0
55416.0,STARLINK-5624,PAYLOAD,2023-03-24 20:48:31,15.6990096,0.0003692,69.9983,302.9911,266.2462,93.8312,-6.0678e-05,-7.496e-05,0.0,0 STARLINK-5624,1 55416U 23014AB  23083.86703668 -.00007496  00000-0 -60678-4 0  9990,2 55416  69.9983 302.9911 0003692 266.2462  93.8312 15.69900960  8391,6737.317,91.726,361.67,356.695,0.0
55416.0,STARLINK-5624,PAYLOAD,2023-03-24 22:20:17,15.69900627,0.00035,69.9981,302.8113,264.8929,95.1867,-5.9041e-05,-7.299e-05,0.0,0 STARLINK-5624,1 55416U 23014AB  23083.93075434 -.00007299  00000-0 -59041-4 0  9994,2 55416  69.9981 302.8113 0003500 264.8929  95.1867 15.69900627  9348,6737.318,91.726,361.541,356.825,0.0
55416.0,STARLINK-5624,PAYLOAD,2023-03-25 02:55:33,15.69883838,0.0003095,69.9985,302.2736,264.0061,96.0782,-8.5102e-05,-0.00010415,0.0,0 STARLINK-5624,1 55416U 23014AB  23084.12191612 -.00010415  00000-0 -85102-4 0  9994,2 55416  69.9985 302.2736 0003095 264.0061  96.0782 15.69883838  8434,6737.366,91.727,361.317,357.146,0.0
